ONEWEB-0020             
1 45133U 20008C   24186.47801476 -.00000365  00000+0 -10826-2 0  9998
2 45133  87.8944 177.9836 0001854  84.5920 275.5419 13.10375020215008
ONEWEB-0021             
1 45134U 20008D   24186.87475712  .00000295  00000+0  80892-3 0  9994
2 45134  87.8949 177.9213 0002230  84.7931 275.3451 13.10375412216231
ONEWEB-0023             
1 45136U 20008F   24186.50541922  .00000699  00000+0  19660-2 0  9995
2 45136  87.8943 177.9839 0002048  99.0605 261.0754 13.10375921214742
ONEWEB-0024             
1 45137U 20008G   24186.47635290 -.00000412  00000+0 -12157-2 0  9993
2 45137  87.8937 177.9758 0002093  84.5114 275.6252 13.10376632214902
ONEWEB-0025             
1 45138U 20008H   24186.49462956  .00000424  00000+0  11783-2 0  9998
2 45138  87.8936 177.9721 0002196  89.5712 270.5667 13.10375804215236
ONEWEB-0026             
1 45139U 20008J   24186.85192081  .00000543  00000+0  14963-2 0  9993
2 45139  87.8973 162.8236 0001893  82.6214 277.5129 13.11415619218622
ONEWEB-0028             
1 45140U 20008K   24186.50179233 -.00000528  00000+0 -15255-2 0  9991
2 45140  87.8969 162.9321 0002675  92.1784 267.9650 13.11416316215211
ONEWEB-0032             
1 45141U 20008L   24186.50957426  .00000664  00000+0  18648-2 0  9998
2 45141  87.8933 178.0157 0002217  87.0615 273.0766 13.10372063214962
